GLOBALSTAR M035 [-]     
1 25851U 99037A   24095.31990975 -.00000065  00000+0 -60544-4 0  9997
2 25851  51.9965 313.6734 0013468 354.4316 176.9763 11.04529336 47760
GLOBALSTAR M032 [-]     
1 25852U 99037B   24095.48415519 -.00000070  00000+0 -10908-3 0  9996
2 25852  51.9931 168.7737 0010197 148.0116 212.1304 11.19050842 85670
GLOBALSTAR M051 [-]     
1 25853U 99037C   24095.52720178 -.00000067  00000+0  13023-3 0  9998
2 25853  51.9834  19.0940 0001574 131.8598 228.2347 11.42194915 82263
GLOBALSTAR M030 [-]     
1 25854U 99037D   24095.61077149 -.00000039  00000+0  76708-3 0  9990
2 25854  51.9865 212.8879 0003224 350.0493  10.0259 11.55088837 99362
GLOBALSTAR M048 [-]     
1 25872U 99041A   24095.29452068 -.00000037  00000+0  88700-3 0  9999
2 25872  51.9369 297.7225 0013929 142.2532  29.2396 11.33844801 75192
GLOBALSTAR M026 [-]     
1 25873U 99041B   24095.44615778 -.00000047  00000+0  63948-3 0  9994
2 25873  52.0005  75.9640 0001129 238.9723 293.9015 11.06836483 99903
GLOBALSTAR M043 [-]     
1 25874U 99041C   24095.54617645 -.00000046  00000+0  66568-3 0  9991
2 25874  51.9440  27.2816 0012611 286.5313 244.3589 11.25677011 73473
GLOBALSTAR M028 [-]     
1 25875U 99041D   24095.60406157 -.00000125  00000+0 -16262-3 0  9998
2 25875  51.9634  60.8054 0063147 198.7353 161.1182 12.50552697135301
